[{"OBJECT_NAME":"STARLINK-34300","OBJECT_ID":"2025-117R","EPOCH":"2026-03-09T04:44:33.704448","MEAN_MOTION":15.30181729,"ECCENTRICITY":0.00012557,"INCLINATION":53.161,"RA_OF_ASC_NODE":41.6565,"ARG_OF_PERICENTER":91.9459,"MEAN_ANOMALY":268.1686,"EPHEMERIS_TYPE":0,"CLASSIFICATION_TYPE":"U","NORAD_CAT_ID":64218,"ELEMENT_SET_NO":999,"REV_AT_EPOCH":4445,"BSTAR":0.0012626008,"MEAN_MOTION_DOT":0.00037202,"MEAN_MOTION_DDOT":0},{"OBJECT_NAME":"USA 121","OBJECT_ID":"1996-029C","EPOCH":"2026-03-09T12:20:41.273376","MEAN_MOTION":13.45884179,"ECCENTRICITY":0.08466392,"INCLINATION":63.3189,"RA_OF_ASC_NODE":92.3686,"ARG_OF_PERICENTER":47.9314,"MEAN_ANOMALY":319.0644,"EPHEMERIS_TYPE":0,"CLASSIFICATION_TYPE":"U","NORAD_CAT_ID":23908,"ELEMENT_SET_NO":999,"REV_AT_EPOCH":8995,"BSTAR":0.00032043182,"MEAN_MOTION_DOT":1.829e-5,"MEAN_MOTION_DDOT":0}]
